{
  "norad_id": 65985,
  "name": "SDA_1675",
  "history": [
    {
      "epoch": "2026-03-28T21:08:38.308416",
      "apogee_km": 949.4395587719227,
      "perigee_km": 944.7216791122664,
      "latitude_deg": 79.35910151703295,
      "longitude_deg": 143.07589823985472,
      "semi_major_axis_km": 7325.217618942094,
      "eccentricity": 0.00032203,
      "inclination_deg": 81.2951,
      "raan_deg": 286.1776,
      "arg_perigee_deg": 33.5377,
      "mean_anomaly_deg": 326.5984,
      "mean_motion_rev_day": 13.84751885
    },
    {
      "epoch": "2026-03-29T00:36:43.880832",
      "apogee_km": 949.4331648723028,
      "perigee_km": 944.7274452755246,
      "latitude_deg": -40.58219852342587,
      "longitude_deg": 156.94875647989102,
      "semi_major_axis_km": 7325.217305073914,
      "eccentricity": 0.0003212,
      "inclination_deg": 81.2951,
      "raan_deg": 286.0435,
      "arg_perigee_deg": 33.0994,
      "mean_anomaly_deg": 327.0364,
      "mean_motion_rev_day": 13.84751974
    }
  ]
}